LANDSAT 9               
1 49260U 21088A   24131.19668863  .00001033  00000+0  23929-3 0  9992
2 49260  98.1885 201.4558 0001271  88.8550 271.2794 14.57118538139156
